NAVSTAR 48 (USA 151)    
1 26407U 00040A   26165.42175328  .00000078  00000+0  00000+0 0  9998
2 26407  54.8517 215.2721 0121054 302.4619 144.6171  2.00557602189895
NAVSTAR 51 (USA 166)    
1 27663U 03005A   26164.12019419  .00000085  00000+0  00000+0 0  9999
2 27663  54.8828 215.1306 0147934  53.0735 310.1871  2.00560725171232
NAVSTAR 54 (USA 177)    
1 28190U 04009A   26165.40531459 -.00000029  00000+0  00000+0 0  9994
2 28190  54.8321 275.7997 0116040 172.9554 191.4180  2.00554723162894
NAVSTAR 56 (USA 180)    
1 28474U 04045A   26164.33708674 -.00000074  00000+0  00000+0 0  9995
2 28474  55.1372 325.0509 0169805 316.2769  61.7561  2.00555605158353
NAVSTAR 57 (USA 183)    
1 28874U 05038A   26165.34905039 -.00000025  00000+0  00000+0 0  9994
2 28874  54.8804 273.2921 0127837 296.1336  56.1489  2.00565778151778
INMARSAT 4-F2           
1 28899U 05044A   26165.57454329 -.00000258  00000+0  00000+0 0  9992
2 28899   5.0909  43.6998 0002807  34.0871 175.4125  1.00270538 75496
NAVSTAR 58 (USA 190)    
1 29486U 06042A   26164.14534884  .00000083  00000+0  00000+0 0  9996
2 29486  54.7102 151.4994 0106542  54.3122  47.2287  2.00570029144316
NAVSTAR 59 (USA 192)    
1 29601U 06052A   26165.42688715  .00000079  00000+0  00000+0 0  9996
2 29601  54.9351 214.1157 0085022  90.8278 270.2385  2.00557900143350
NAVSTAR 60 (USA 196)    
1 32260U 07047A   26165.23321785 -.00000040  00000+0  00000+0 0  9995
2 32260  54.0931  80.1874 0166667  87.3238 274.5790  2.00555290136752
COSMOS 2433 [GLONASS-M] 
1 32275U 07052A   26161.34602035 -.00000036  00000+0  00000+0 0  9990
2 32275  65.5811 316.1641 0002223 191.9747 168.0168  2.13104347144910
COSMOS 2432 [GLONASS-M] 
1 32276U 07052B   26162.35423378 -.00000041  00000+0  00000+0 0  9990
2 32276  65.5974 316.2581 0007764 332.8636  24.5023  2.13103380144959
NAVSTAR 61 (USA 199)    
1 32384U 07062A   26165.53940030 -.00000026  00000+0  00000+0 0  9996
2 32384  55.0338 274.2592 0035679 165.1594 183.2105  2.00559893135457
COSMOS 2434 [GLONASS-M] 
1 32393U 07065A   26164.06710712  .00000117  00000+0  00000+0 0  9998
2 32393  64.3199 192.0547 0001152 331.0720 206.3088  2.13101303143680
COSMOS 2436 [GLONASS-M] 
1 32395U 07065C   26164.25890233  .00000116  00000+0  00000+0 0  9997
2 32395  64.3263 192.1203 0017212 354.2143 102.6396  2.13100224143641
NAVSTAR 62 (USA 201)    
1 32711U 08012A   26165.14481777  .00000066  00000+0  00000+0 0  9994
2 32711  54.4970 150.0462 0211225 247.8096 109.9238  2.00572289133691
NAVSTAR 64 (USA 206)    
1 35752U 09043A   26165.28625693 -.00000065  00000+0  00000+0 0  9999
2 35752  56.2084  27.5654 0053799  83.1596  28.9828  2.00554278123302
COSMOS 2456 [GLONASS-M] 
1 36111U 09070A   26165.28491056 -.00000030  00000+0  00000+0 0  9995
2 36111  65.0096  71.0712 0004674 329.8284 219.9396  2.13103806128368
COSMOS 2457 [GLONASS-M] 
1 36112U 09070B   26165.10964975 -.00000030  00000+0  00000+0 0  9992
2 36112  64.9948  70.9214 0002725 124.1824  58.5663  2.13101242128365
COSMOS 2460 [GLONASS-M] 
1 36402U 10007C   26164.86672859 -.00000052  00000+0  00000+0 0  9999
2 36402  65.4226 314.5793 0002121 106.9290 251.4243  2.13101719126653
NAVSTAR 65 (USA 213)    
1 36585U 10022A   26165.52972440  .00000082  00000+0  00000+0 0  9993
2 36585  54.2704 208.6691 0126334  66.1278 340.3638  2.00562238117545
BEIDOU-2 IGSO-1         
1 36828U 10036A   26164.92579899 -.00000047  00000+0  00000+0 0  9994
2 36828  54.3020 162.9897 0059243 225.1130 315.0800  1.00272866 58060
BEIDOU-2 G4             
1 37210U 10057A   26165.64911266 -.00000109  00000+0  00000+0 0  9990
2 37210   3.6395  68.9594 0005261 197.2003  30.4729  1.00270893 57263
BEIDOU-2 IGSO-2         
1 37256U 10068A   26165.84489821 -.00000216  00000+0  00000+0 0  9990
2 37256  47.5533 271.8616 0055907 212.6114 190.6476  1.00283457 56774
BEIDOU-2 IGSO-3         
1 37384U 11013A   26165.58618677 -.00000189  00000+0  00000+0 0  9996
2 37384  62.4034  40.1764 0034371 184.2029 357.3112  1.00267759 55630
GSAT-8                  
1 37605U 11022A   26165.84216727  .00000088  00000+0  00000+0 0  9998
2 37605   2.1251  81.8517 0002356 203.3868 336.1554  1.00272702 53196
BEIDOU-2 IGSO-4         
1 37763U 11038A   26165.86702985  .00000046  00000+0  00000+0 0  9992
2 37763  54.5995 165.6936 0159484 231.3888 271.5218  1.00285242 54622
GSAT0101 (GALILEO-PFM)  
1 37846U 11060A   26163.74233043 -.00000071  00000+0  00000+0 0  9997
2 37846  56.9957 341.8816 0003117  51.3749 308.6629  1.70475562 91048
GSAT0102 (GALILEO-FM2)  
1 37847U 11060B   26158.40220003 -.00000063  00000+0  00000+0 0  9998
2 37847  57.0009 342.0270 0003434  13.7700 354.5257  1.70476015 90968
COSMOS 2476 [GLONASS-M] 
1 37867U 11064A   26164.36654497 -.00000031  00000+0  00000+0 0  9999
2 37867  65.2676  73.0007 0022731 238.9288 234.6258  2.13103919113685
COSMOS 2477 [GLONASS-M] 
1 37868U 11064B   26164.17359397 -.00000031  00000+0  00000+0 0  9990
2 37868  65.2740  73.0865 0019884 240.5145 265.3672  2.13103103113671
COSMOS 2475 [GLONASS-M] 
1 37869U 11064C   26164.21303852 -.00000031  00000+0  00000+0 0  9991
2 37869  65.2809  73.1067 0025589 253.3203 237.9576  2.13101955113681
